QZS-1R                  
1 49336U 21096A   23322.23992573 -.00000197  00000+0  00000+0 0  9991
2 49336  35.5107  93.7703 0750502 270.5925 274.0722  1.00266598  7554
